ONEWEB-0528             
1 54643U 22166B   24074.46530432  .00000012  00000+0 -15873-5 0  9995
2 54643  87.9252  48.1209 0001880  78.8049 281.3296 13.21824424 63049
ONEWEB-0539             
1 54644U 22166C   24074.19879407  .00000133  00000+0  29162-3 0  9991
2 54644  87.9257  48.1748 0002198  82.3780 277.7604 13.21827525 63001
ONEWEB-0540             
1 54645U 22166D   24074.42038262 -.00001547  00000+0 -37781-2 0  9991
2 54645  87.9248  48.1545 0002062  79.5636 280.5730 13.21814654 63040
ONEWEB-0542             
1 54646U 22166E   24074.43533142  .00000139  00000+0  30524-3 0  9993
2 54646  87.9254  48.1278 0002473  87.8252 272.3165 13.21826943 63048
ONEWEB-0545             
1 54647U 22166F   24074.17514544  .00000009  00000+0 -99732-5 0  9995
2 54647  87.9242  48.2099 0002464  79.2544 280.8867 13.21826239 62519
ONEWEB-0580             
1 54648U 22166G   24074.82960021 -.00000073  00000+0 -20853-3 0  9991
2 54648  87.9251  48.0411 0002510  87.7720 272.3702 13.21826571 63107
ONEWEB-0582             
1 54649U 22166H   24074.19090631  .00000033  00000+0  47978-4 0  9995
2 54649  87.9249  48.2087 0002133  75.5374 284.5996 13.21827547 62537
ONEWEB-0583             
1 54650U 22166J   24074.42903155  .00000065  00000+0  12507-3 0  9991
2 54650  87.9249  48.1631 0001604  80.4765 279.6551 13.21826689 63050
